[
    {"zipcode":"10115","place":"Berlin","state":"Berlin","state_code":"BE","district":"Mitte","community":"Mitte-Wedding-Tiergarten","square meters": "","latitude":"52.5323","longitude":"13.3846"},
    {"zipcode":"10117","place":"Berlin","state":"Berlin","state_code":"BE","district":"Mitte","community":"Mitte-Wedding-Tiergarten","square meters": "","latitude":"52.517","longitude":"13.3872"},
    {"zipcode":"10119","place":"Berlin","state":"Berlin","state_code":"BE","district":"Mitte","community":"Mitte-Wedding-Tiergarten","square meters": "","latitude":"52.5305","longitude":"13.4053"},
    {"zipcode":"10178","place":"Berlin","state":"Berlin","state_code":"BE","district":"Mitte","community":"Mitte-Wedding-Tiergarten","square meters": "","latitude":"52.5213","longitude":"13.4096"},
    {"zipcode":"10179","place":"Berlin","state":"Berlin","state_code":"BE","district":"Mitte","community":"Mitte-Wedding-Tiergarten","square meters": "","latitude":"52.5122","longitude":"13.4164"},
    {"zipcode":"10243","place":"Berlin","state":"Berlin","state_code":"BE","district":"Friedrichshain","community":"Friedrichshain-Kreuzberg","square meters": "","latitude":"52.5123","longitude":"13.4394"},
    {"zipcode":"10245","place":"Berlin","state":"Berlin","state_code":"BE","district":"Friedrichshain","community":"Friedrichshain-Kreuzberg","square meters": "","latitude":"52.5007","longitude":"13.4647"},
    {"zipcode":"10247","place":"Berlin","state":"Berlin","state_code":"BE","district":"Friedrichshain","community":"Friedrichshain-Kreuzberg","square meters": "","latitude":"52.5161","longitude":"13.4656"},
    {"zipcode":"10249","place":"Berlin","state":"Berlin","state_code":"BE","district":"Friedrichshain","community":"Friedrichshain-Kreuzberg","square meters": "","latitude":"52.5238","longitude":"13.4428"},
    {"zipcode":"10315","place":"Berlin","state":"Berlin","state_code":"BE","district":"Friedrichsfelde","community":"Lichtenberg-Hohenschönhausen","square meters": "","latitude":"52.5132","longitude":"13.5148"},
    {"zipcode":"10317","place":"Berlin","state":"Berlin","state_code":"BE","district":"Rummelsburg","community":"Lichtenberg-Hohenschönhausen","square meters": "","latitude":"52.4979","longitude":"13.4908"},
    {"zipcode":"10318","place":"Berlin","state":"Berlin","state_code":"BE","district":"Karlshorst","community":"Lichtenberg-Hohenschönhausen","square meters": "","latitude":"52.4835","longitude":"13.5287"},
    {"zipcode":"10319","place":"Berlin","state":"Berlin","state_code":"BE","district":"Friedrichsfelde","community":"Lichtenberg-Hohenschönhausen","square meters": "","latitude":"52.4992","longitude":"13.5188"},
    {"zipcode":"10365","place":"Berlin","state":"Berlin","state_code":"BE","district":"Lichtenberg","community":"Lichtenberg-Hohenschönhausen","square meters": "","latitude":"52.5206","longitude":"13.4969"},
    {"zipcode":"10367","place":"Berlin","state":"Berlin","state_code":"BE","district":"Lichtenberg","community":"Lichtenberg-Hohenschönhausen","square meters": "","latitude":"52.5246","longitude":"13.4821"},
    {"zipcode":"10369","place":"Berlin","state":"Berlin","state_code":"BE","district":"Lichtenberg","community":"Lichtenberg-Hohenschönhausen","square meters": "","latitude":"52.5295","longitude":"13.4695"},
    {"zipcode":"10405","place":"Berlin","state":"Berlin","state_code":"BE","district":"Prenzlauer Berg","community":"Pankow-Prenzlauer Berg-Weißensee","square meters": "","latitude":"52.5352","longitude":"13.4257"},
    {"zipcode":"10407","place":"Berlin","state":"Berlin","state_code":"BE","district":"Prenzlauer Berg","community":"Pankow-Prenzlauer Berg-Weißensee","square meters": "","latitude":"52.5336","longitude":"13.4492"},
    {"zipcode":"10409","place":"Berlin","state":"Berlin","state_code":"BE","district":"Prenzlauer Berg","community":"Pankow-Prenzlauer Berg-Weißensee","square meters": "","latitude":"52.5443","longitude":"13.4414"},
    {"zipcode":"10435","place":"Berlin","state":"Berlin","state_code":"BE","district":"Prenzlauer Berg","community":"Pankow-Prenzlauer Berg-Weißensee","square meters": "","latitude":"52.5378","longitude":"13.4112"},
    {"zipcode":"10437","place":"Berlin","state":"Berlin","state_code":"BE","district":"Prenzlauer Berg","community":"Pankow-Prenzlauer Berg-Weißensee","square meters": "","latitude":"52.5449","longitude":"13.4126"},
    {"zipcode":"10439","place":"Berlin","state":"Berlin","state_code":"BE","district":"Prenzlauer Berg","community":"Pankow-Prenzlauer Berg-Weißensee","square meters": "","latitude":"52.5522","longitude":"13.4121"},
    {"zipcode":"10551","place":"Berlin","state":"Berlin","state_code":"BE","district":"Moabit","community":"Mitte-Wedding-Tiergarten","square meters": "","latitude":"52.5307","longitude":"13.3372"},
    {"zipcode":"10553","place":"Berlin","state":"Berlin","state_code":"BE","district":"Moabit","community":"Mitte-Wedding-Tiergarten","square meters": "","latitude":"52.5305","longitude":"13.3215"},
    {"zipcode":"10555","place":"Berlin","state":"Berlin","state_code":"BE","district":"Moabit","community":"Mitte-Wedding-Tiergarten","square meters": "","latitude":"52.5215","longitude":"13.3355"},
    {"zipcode":"10557","place":"Berlin","state":"Berlin","state_code":"BE","district":"Moabit","community":"Mitte-Wedding-Tiergarten","square meters": "","latitude":"52.5233","longitude":"13.3594"},
    {"zipcode":"10559","place":"Berlin","state":"Berlin","state_code":"BE","district":"Moabit","community":"Mitte-Wedding-Tiergarten","square meters": "","latitude":"52.5301","longitude":"13.3499"},
    {"zipcode":"10585","place":"Berlin","state":"Berlin","state_code":"BE","district":"Charlottenburg","community":"Charlottenburg-Wilmersdorf","square meters": "","latitude":"52.5152","longitude":"13.3057"},
    {"zipcode":"10587","place":"Berlin","state":"Berlin","state_code":"BE","district":"Charlottenburg","community":"Charlottenburg-Wilmersdorf","square meters": "","latitude":"52.5184","longitude":"13.3195"},
    {"zipcode":"10589","place":"Berlin","state":"Berlin","state_code":"BE","district":"Charlottenburg","community":"Charlottenburg-Wilmersdorf","square meters": "","latitude":"52.5276","longitude":"13.3057"},
    {"zipcode":"10623","place":"Berlin","state":"Berlin","state_code":"BE","district":"Charlottenburg","community":"Charlottenburg-Wilmersdorf","square meters": "","latitude":"52.5088","longitude":"13.3274"},
    {"zipcode":"10625","place":"Berlin","state":"Berlin","state_code":"BE","district":"Charlottenburg","community":"Charlottenburg-Wilmersdorf","square meters": "","latitude":"52.5095","longitude":"13.3147"},
    {"zipcode":"10627","place":"Berlin","state":"Berlin","state_code":"BE","district":"Charlottenburg","community":"Charlottenburg-Wilmersdorf","square meters": "","latitude":"52.508","longitude":"13.303"},
    {"zipcode":"10629","place":"Berlin","state":"Berlin","state_code":"BE","district":"Charlottenburg","community":"Charlottenburg-Wilmersdorf","square meters": "","latitude":"52.5028","longitude":"13.3086"},
    {"zipcode":"10707","place":"Berlin","state":"Berlin","state_code":"BE","district":"Wilmersdorf","community":"Charlottenburg-Wilmersdorf","square meters": "","latitude":"52.4967","longitude":"13.3138"},
    {"zipcode":"10709","place":"Berlin","state":"Berlin","state_code":"BE","district":"Wilmersdorf","community":"Charlottenburg-Wilmersdorf","square meters": "","latitude":"52.4939","longitude":"13.3031"},
    {"zipcode":"10711","place":"Berlin","state":"Berlin","state_code":"BE","district":"Halensee","community":"Charlottenburg-Wilmersdorf","square meters": "","latitude":"52.4981","longitude":"13.2905"},
    {"zipcode":"10713","place":"Berlin","state":"Berlin","state_code":"BE","district":"Wilmersdorf","community":"Charlottenburg-Wilmersdorf","square meters": "","latitude":"52.4851","longitude":"13.3133"},
    {"zipcode":"10715","place":"Berlin","state":"Berlin","state_code":"BE","district":"Wilmersdorf","community":"Charlottenburg-Wilmersdorf","square meters": "","latitude":"52.4824","longitude":"13.3289"},
    {"zipcode":"10717","place":"Berlin","state":"Berlin","state_code":"BE","district":"Wilmersdorf","community":"Charlottenburg-Wilmersdorf","square meters": "","latitude":"52.4908","longitude":"13.3275"},
    {"zipcode":"10719","place":"Berlin","state":"Berlin","state_code":"BE","district":"Wilmersdorf","community":"Charlottenburg-Wilmersdorf","square meters": "","latitude":"52.4988","longitude":"13.3257"},
    {"zipcode":"10777","place":"Berlin","state":"Berlin","state_code":"BE","district":"Wilmersdorf","community":"Charlottenburg-Wilmersdorf","square meters": "","latitude":"52.4975","longitude":"13.3427"},
    {"zipcode":"10779","place":"Berlin","state":"Berlin","state_code":"BE","district":"Schöneberg","community":"Charlottenburg-Wilmersdorf","square meters": "","latitude":"52.4921","longitude":"13.3395"},
    {"zipcode":"10781","place":"Berlin","state":"Berlin","state_code":"BE","district":"Schöneberg","community":"Tempelhof-Schöneberg","square meters": "","latitude":"52.4936","longitude":"13.3529"},
    {"zipcode":"10783","place":"Berlin","state":"Berlin","state_code":"BE","district":"Schöneberg","community":"Tempelhof-Schöneberg","square meters": "","latitude":"52.4964","longitude":"13.3624"},
    {"zipcode":"10785","place":"Berlin","state":"Berlin","state_code":"BE","district":"Tiergarten","community":"Mitte-Wedding-Tiergarten","square meters": "","latitude":"52.5073","longitude":"13.3643"},
    {"zipcode":"10787","place":"Berlin","state":"Berlin","state_code":"BE","district":"Tiergarten","community":"Mitte-Wedding-Tiergarten","square meters": "","latitude":"52.5078","longitude":"13.3439"},
    {"zipcode":"10789","place":"Berlin","state":"Berlin","state_code":"BE","district":"Schöneberg","community":"Tempelhof-Schöneberg","square meters": "","latitude":"52.5017","longitude":"13.3377"},
    {"zipcode":"10823","place":"Berlin","state":"Berlin","state_code":"BE","district":"Schöneberg","community":"Tempelhof-Schöneberg","square meters": "","latitude":"52.4873","longitude":"13.3509"},
    {"zipcode":"10825","place":"Berlin","state":"Berlin","state_code":"BE","district":"Schöneberg","community":"Wilmersdorf-Schöneberg","square meters": "","latitude":"52.4838","longitude":"13.3413"},
    {"zipcode":"10827","place":"Berlin","state":"Berlin","state_code":"BE","district":"Schöneberg","community":"Friedenau-Schöneberg","square meters": "","latitude":"52.4838","longitude":"13.3543"},
    {"zipcode":"10829","place":"Berlin","state":"Berlin","state_code":"BE","district":"Schöneberg","community":"Tempelhof-Schöneberg","square meters": "","latitude":"52.4761","longitude":"13.3607"},
    {"zipcode":"10961","place":"Berlin","state":"Berlin","state_code":"BE","district":"Kreuzberg","community":"Friedrichshain-Kreuzberg","square meters": "","latitude":"52.4926","longitude":"13.3975"},
    {"zipcode":"10963","place":"Berlin","state":"Berlin","state_code":"BE","district":"Kreuzberg","community":"Friedrichshain-Kreuzberg","square meters": "","latitude":"52.5003","longitude":"13.3813"},
    {"zipcode":"10965","place":"Berlin","state":"Berlin","state_code":"BE","district":"Kreuzberg","community":"Friedrichshain-Kreuzberg","square meters": "","latitude":"52.4855","longitude":"13.3946"},
    {"zipcode":"10967","place":"Berlin","state":"Berlin","state_code":"BE","district":"Kreuzberg","community":"Friedrichshain-Kreuzberg","square meters": "","latitude":"52.4905","longitude":"13.4164"},
    {"zipcode":"10969","place":"Berlin","state":"Berlin","state_code":"BE","district":"Kreuzberg","community":"Friedrichshain-Kreuzberg","square meters": "","latitude":"52.5025","longitude":"13.4012"},
    {"zipcode":"10997","place":"Berlin","state":"Berlin","state_code":"BE","district":"Kreuzberg","community":"Friedrichshain-Kreuzberg","square meters": "","latitude":"52.5009","longitude":"13.4356"},
    {"zipcode":"10999","place":"Berlin","state":"Berlin","state_code":"BE","district":"Kreuzberg","community":"Friedrichshain-Kreuzberg","square meters": "","latitude":"52.4969","longitude":"13.4266"},
    {"zipcode":"11011","place":"Berlin","state":"Berlin","state_code":"BE","district":"Bundestag","community":"Regierung","square meters": "","latitude":"52.5179","longitude":"13.3759"},
    {"zipcode":"12043","place":"Berlin","state":"Berlin","state_code":"BE","district":"Neukölln","community":"Neukölln","square meters": "","latitude":"52.4799","longitude":"13.4371"},
    {"zipcode":"12045","place":"Berlin","state":"Berlin","state_code":"BE","district":"Neukölln","community":"Neukölln","square meters": "","latitude":"52.4855","longitude":"13.4392"},
    {"zipcode":"12047","place":"Berlin","state":"Berlin","state_code":"BE","district":"Neukölln","community":"Neukölln","square meters": "","latitude":"52.4905","longitude":"13.4285"},
    {"zipcode":"12049","place":"Berlin","state":"Berlin","state_code":"BE","district":"Neukölln","community":"Neukölln","square meters": "","latitude":"52.4764","longitude":"13.422"},
    {"zipcode":"12051","place":"Berlin","state":"Berlin","state_code":"BE","district":"Neukölln","community":"Neukölln","square meters": "","latitude":"52.4669","longitude":"13.4298"},
    {"zipcode":"12053","place":"Berlin","state":"Berlin","state_code":"BE","district":"Neukölln","community":"Neukölln","square meters": "","latitude":"52.4768","longitude":"13.4325"},
    {"zipcode":"12055","place":"Berlin","state":"Berlin","state_code":"BE","district":"Neukölln","community":"Neukölln","square meters": "","latitude":"52.4712","longitude":"13.4486"},
    {"zipcode":"12057","place":"Berlin","state":"Berlin","state_code":"BE","district":"Neukölln","community":"Neukölln","square meters": "","latitude":"52.4684","longitude":"13.4633"},
    {"zipcode":"12059","place":"Berlin","state":"Berlin","state_code":"BE","district":"Neukölln","community":"Neukölln","square meters": "","latitude":"52.4809","longitude":"13.4513"},
    {"zipcode":"12099","place":"Berlin","state":"Berlin","state_code":"BE","district":"Tempelhof","community":"Neukölln","square meters": "","latitude":"52.4644","longitude":"13.4023"},
    {"zipcode":"12101","place":"Berlin","state":"Berlin","state_code":"BE","district":"Tempelhof","community":"Tempelhof-Schöneberg","square meters": "","latitude":"52.4785","longitude":"13.3791"},
    {"zipcode":"12103","place":"Berlin","state":"Berlin","state_code":"BE","district":"Tempelhof","community":"Tempelhof-Schöneberg","square meters": "","latitude":"52.4641","longitude":"13.3747"},
    {"zipcode":"12105","place":"Berlin","state":"Berlin","state_code":"BE","district":"Mariendorf","community":"Tempelhof-Schöneberg","square meters": "","latitude":"52.4492","longitude":"13.3714"},
    {"zipcode":"12107","place":"Berlin","state":"Berlin","state_code":"BE","district":"Marienfelde","community":"Tempelhof-Schöneberg","square meters": "","latitude":"52.4312","longitude":"13.3917"},
    {"zipcode":"12109","place":"Berlin","state":"Berlin","state_code":"BE","district":"Marienfelde","community":"Tempelhof-Schöneberg","square meters": "","latitude":"52.4465","longitude":"13.3993"},
    {"zipcode":"12157","place":"Berlin","state":"Berlin","state_code":"BE","district":"Neukölln","community":"Neukölln","square meters": "","latitude":"52.4653","longitude":"13.3462"},
    {"zipcode":"12159","place":"Berlin","state":"Berlin","state_code":"BE","district":"Friedenau","community":"Tempelhof-Schöneberg","square meters": "","latitude":"52.4737","longitude":"13.3369"},
    {"zipcode":"12161","place":"Berlin","state":"Berlin","state_code":"BE","district":"Friedenau","community":"Steglitz-Zehlendorf","square meters": "","latitude":"52.4704","longitude":"13.327"},
    {"zipcode":"12163","place":"Berlin","state":"Berlin","state_code":"BE","district":"Steglitz","community":"Steglitz-Zehlendorf","square meters": "","latitude":"52.4626","longitude":"13.3185"},
    {"zipcode":"12165","place":"Berlin","state":"Berlin","state_code":"BE","district":"Steglitz","community":"Steglitz-Zehlendorf","square meters": "","latitude":"52.4557","longitude":"13.3148"},
    {"zipcode":"12167","place":"Berlin","state":"Berlin","state_code":"BE","district":"Steglitz","community":"Steglitz-Zehlendorf","square meters": "","latitude":"52.4486","longitude":"13.3338"},
    {"zipcode":"12169","place":"Berlin","state":"Berlin","state_code":"BE","district":"Steglitz","community":"Steglitz-Zehlendorf","square meters": "","latitude":"52.4548","longitude":"13.3435"},
    {"zipcode":"12203","place":"Berlin","state":"Berlin","state_code":"BE","district":"Lichterfelde","community":"Steglitz-Zehlendorf","square meters": "","latitude":"52.4444","longitude":"13.3096"},
    {"zipcode":"12205","place":"Berlin","state":"Berlin","state_code":"BE","district":"Lichterfelde","community":"Steglitz-Zehlendorf","square meters": "","latitude":"52.434","longitude":"13.2945"},
    {"zipcode":"12207","place":"Berlin","state":"Berlin","state_code":"BE","district":"Lichterfelde","community":"Steglitz-Zehlendorf","square meters": "","latitude":"52.4199","longitude":"13.3133"},
    {"zipcode":"12209","place":"Berlin","state":"Berlin","state_code":"BE","district":"Lichterfelde","community":"Steglitz-Zehlendorf","square meters": "","latitude":"52.4179","longitude":"13.3291"},
    {"zipcode":"12247","place":"Berlin","state":"Berlin","state_code":"BE","district":"Lankwitz","community":"Steglitz-Zehlendorf","square meters": "","latitude":"52.4395","longitude":"13.3462"},
    {"zipcode":"12249","place":"Berlin","state":"Berlin","state_code":"BE","district":"Lankwitz","community":"Steglitz-Zehlendorf","square meters": "","latitude":"52.4264","longitude":"13.3518"},
    {"zipcode":"12277","place":"Berlin","state":"Berlin","state_code":"BE","district":"Marienfelde / Mariendorf","community":"Tempelhof-Schöneberg","square meters": "","latitude":"52.4134","longitude":"13.375"},
    {"zipcode":"12279","place":"Berlin","state":"Berlin","state_code":"BE","district":"Marienfelde / Lichterfelde","community":"Tempelhof-Schöneberg","square meters": "","latitude":"52.4106","longitude":"13.3531"},
    {"zipcode":"12305","place":"Berlin","state":"Berlin","state_code":"BE","district":"Lichtenrade","community":"Tempelhof-Schöneberg","square meters": "","latitude":"52.4033","longitude":"13.4021"},
    {"zipcode":"12307","place":"Berlin","state":"Berlin","state_code":"BE","district":"Marienfelde / Lichtenrade","community":"Tempelhof-Schöneberg","square meters": "","latitude":"52.3886","longitude":"13.3907"},
    {"zipcode":"12309","place":"Berlin","state":"Berlin","state_code":"BE","district":"Lichtenrade","community":"Tempelhof-Schöneberg","square meters": "","latitude":"52.3905","longitude":"13.4171"},
    {"zipcode":"12347","place":"Berlin","state":"Berlin","state_code":"BE","district":"Britz","community":"Neukölln","square meters": "","latitude":"52.4509","longitude":"13.4281"},
    {"zipcode":"12349","place":"Berlin","state":"Berlin","state_code":"BE","district":"Buckow","community":"Neukölln","square meters": "","latitude":"52.4253","longitude":"13.4221"},
    {"zipcode":"12351","place":"Berlin","state":"Berlin","state_code":"BE","district":"Buckow","community":"Neukölln","square meters": "","latitude":"52.4328","longitude":"13.4555"},
    {"zipcode":"12353","place":"Berlin","state":"Berlin","state_code":"BE","district":"Gropiusstadt","community":"Neukölln","square meters": "","latitude":"52.4227","longitude":"13.4589"},
    {"zipcode":"12355","place":"Berlin","state":"Berlin","state_code":"BE","district":"Rudow","community":"Neukölln","square meters": "","latitude":"52.411","longitude":"13.4978"},
    {"zipcode":"12357","place":"Berlin","state":"Berlin","state_code":"BE","district":"Rudow","community":"Neukölln","square meters": "","latitude":"52.4293","longitude":"13.4905"},
    {"zipcode":"12359","place":"Berlin","state":"Berlin","state_code":"BE","district":"Britz","community":"Neukölln","square meters": "","latitude":"52.4473","longitude":"13.4531"},
    {"zipcode":"12435","place":"Berlin","state":"Berlin","state_code":"BE","district":"Alt-Treptow","community":"Treptow-Köpenick","square meters": "","latitude":"52.4866","longitude":"13.4672"},
    {"zipcode":"12437","place":"Berlin","state":"Berlin","state_code":"BE","district":"Baumschulenweg","community":"Treptow-Köpenick","square meters": "","latitude":"52.4624","longitude":"13.4817"},
    {"zipcode":"12439","place":"Berlin","state":"Berlin","state_code":"BE","district":"Niederschöneweide","community":"Treptow-Köpenick","square meters": "","latitude":"52.4528","longitude":"13.5286"},
    {"zipcode":"12459","place":"Berlin","state":"Berlin","state_code":"BE","district":"Oberschöneweide","community":"Treptow-Köpenick","square meters": "","latitude":"52.4656","longitude":"13.528"},
    {"zipcode":"12487","place":"Berlin","state":"Berlin","state_code":"BE","district":"Adlershof / Johannisthal","community":"Treptow-Köpenick","square meters": "","latitude":"52.4437","longitude":"13.5052"},
    {"zipcode":"12489","place":"Berlin","state":"Berlin","state_code":"BE","district":"Adlershof / Johannisthal","community":"Treptow-Köpenick","square meters": "","latitude":"52.4356","longitude":"13.5432"},
    {"zipcode":"12524","place":"Berlin","state":"Berlin","state_code":"BE","district":"Altglienicke","community":"Treptow-Köpenick","square meters": "","latitude":"52.4128","longitude":"13.5417"},
    {"zipcode":"12526","place":"Berlin","state":"Berlin","state_code":"BE","district":"Bohnsdorf","community":"Treptow-Köpenick","square meters": "","latitude":"52.3976","longitude":"13.5642"},
    {"zipcode":"12527","place":"Berlin","state":"Berlin","state_code":"BE","district":"Schmöckwitz","community":"Treptow-Köpenick","square meters": "","latitude":"52.3856","longitude":"13.6339"},
    {"zipcode":"12529","place":"Berlin","state":"Brandenburg","state_code":"BE","district":"Schönefeld","community":"Dahme-Spreewald","square meters": "","latitude":"52.5167","longitude":"13.4"},
    {"zipcode":"12555","place":"Berlin","state":"Berlin","state_code":"BE","district":"Köpenick","community":"Treptow-Köpenick","square meters": "","latitude":"52.4627","longitude":"13.5791"},
    {"zipcode":"12557","place":"Berlin","state":"Berlin","state_code":"BE","district":"Köpenick","community":"Treptow-Köpenick","square meters": "","latitude":"52.4303","longitude":"13.592"},
    {"zipcode":"12559","place":"Berlin","state":"Berlin","state_code":"BE","district":"Köpenick","community":"Treptow-Köpenick","square meters": "","latitude":"52.4149","longitude":"13.6634"},
    {"zipcode":"12587","place":"Berlin","state":"Berlin","state_code":"BE","district":"Friedrichshagen","community":"Treptow-Köpenick","square meters": "","latitude":"52.4586","longitude":"13.6362"},
    {"zipcode":"12589","place":"Berlin","state":"Berlin","state_code":"BE","district":"Rahnsdorf","community":"Treptow-Köpenick","square meters": "","latitude":"52.4438","longitude":"13.7034"},
    {"zipcode":"12619","place":"Berlin","state":"Berlin","state_code":"BE","district":"Hellersdorf / Kaulsdorf","community":"Marzahn-Hellersdorf","square meters": "","latitude":"52.5235","longitude":"13.5883"},
    {"zipcode":"12621","place":"Berlin","state":"Berlin","state_code":"BE","district":"Kaulsdorf","community":"Marzahn-Hellersdorf","square meters": "","latitude":"52.5027","longitude":"13.5878"},
    {"zipcode":"12623","place":"Berlin","state":"Berlin","state_code":"BE","district":"Mahlsdorf","community":"Marzahn-Hellersdorf","square meters": "","latitude":"52.5026","longitude":"13.6165"},
    {"zipcode":"12627","place":"Berlin","state":"Berlin","state_code":"BE","district":"Hellersdorf","community":"Marzahn-Hellersdorf","square meters": "","latitude":"52.5372","longitude":"13.6135"},
    {"zipcode":"12629","place":"Berlin","state":"Berlin","state_code":"BE","district":"Hellersdorf","community":"Marzahn-Hellersdorf","square meters": "","latitude":"52.5413","longitude":"13.5901"},
    {"zipcode":"12679","place":"Berlin","state":"Berlin","state_code":"BE","district":"Marzahn","community":"Marzahn-Hellersdorf","square meters": "","latitude":"52.5501","longitude":"13.566"},
    {"zipcode":"12681","place":"Berlin","state":"Berlin","state_code":"BE","district":"Marzahn","community":"Marzahn-Hellersdorf","square meters": "","latitude":"52.5369","longitude":"13.5367"},
    {"zipcode":"12683","place":"Berlin","state":"Berlin","state_code":"BE","district":"Biesdorf","community":"Marzahn-Hellersdorf","square meters": "","latitude":"52.5075","longitude":"13.5591"},
    {"zipcode":"12685","place":"Berlin","state":"Berlin","state_code":"BE","district":"Marzahn","community":"Marzahn-Hellersdorf","square meters": "","latitude":"52.5391","longitude":"13.565"},
    {"zipcode":"12687","place":"Berlin","state":"Berlin","state_code":"BE","district":"Marzahn","community":"Marzahn-Hellersdorf","square meters": "","latitude":"52.5564","longitude":"13.5645"},
    {"zipcode":"12689","place":"Berlin","state":"Berlin","state_code":"BE","district":"Marzahn","community":"Marzahn-Hellersdorf","square meters": "","latitude":"52.5665","longitude":"13.5675"},
    {"zipcode":"13047","place":"Berlin","state":"Brandenburg","state_code":"BE","district":"Reinickendorf","community":"Reinickendorf","square meters": "","latitude":"52.5667","longitude":"13.3333"},
    {"zipcode":"13051","place":"Berlin","state":"Berlin","state_code":"BE","district":"Malchow / Hohenschönhausen","community":"Lichtenberg-Hohenschönhausen","square meters": "","latitude":"52.5815","longitude":"13.4908"},
    {"zipcode":"13053","place":"Berlin","state":"Berlin","state_code":"BE","district":"Hohenschönhausen","community":"Lichtenberg-Hohenschönhausen","square meters": "","latitude":"52.55","longitude":"13.5046"},
    {"zipcode":"13055","place":"Berlin","state":"Berlin","state_code":"BE","district":"Hohenschönhausen","community":"Lichtenberg-Hohenschönhausen","square meters": "","latitude":"52.5401","longitude":"13.496"},
    {"zipcode":"13057","place":"Berlin","state":"Berlin","state_code":"BE","district":"Falkenberg","community":"Lichtenberg-Hohenschönhausen","square meters": "","latitude":"52.5711","longitude":"13.5415"},
    {"zipcode":"13059","place":"Berlin","state":"Berlin","state_code":"BE","district":"Wartenberg","community":"Lichtenberg-Hohenschönhausen","square meters": "","latitude":"52.5809","longitude":"13.5217"},
    {"zipcode":"13086","place":"Berlin","state":"Berlin","state_code":"BE","district":"Weißensee","community":"Pankow-Prenzlauer Berg-Weißensee","square meters": "","latitude":"52.5565","longitude":"13.4482"},
    {"zipcode":"13088","place":"Berlin","state":"Berlin","state_code":"BE","district":"Weißensee","community":"Pankow-Prenzlauer Berg-Weißensee","square meters": "","latitude":"52.5603","longitude":"13.4708"},
    {"zipcode":"13089","place":"Berlin","state":"Berlin","state_code":"BE","district":"Heinersdorf","community":"Pankow-Prenzlauer Berg-Weißensee","square meters": "","latitude":"52.5707","longitude":"13.441"},
    {"zipcode":"13125","place":"Berlin","state":"Berlin","state_code":"BE","district":"Buch / Karow","community":"Pankow-Prenzlauer Berg-Weißensee","square meters": "","latitude":"52.6329","longitude":"13.4829"},
    {"zipcode":"13127","place":"Berlin","state":"Berlin","state_code":"BE","district":"Französisch Buchholz","community":"Pankow-Prenzlauer Berg-Weißensee","square meters": "","latitude":"52.62","longitude":"13.438"},
    {"zipcode":"13129","place":"Berlin","state":"Berlin","state_code":"BE","district":"Blankenburg","community":"Pankow-Prenzlauer Berg-Weißensee","square meters": "","latitude":"52.5921","longitude":"13.4579"},
    {"zipcode":"13156","place":"Berlin","state":"Berlin","state_code":"BE","district":"Niederschönhausen","community":"Pankow-Prenzlauer Berg-Weißensee","square meters": "","latitude":"52.5824","longitude":"13.3997"},
    {"zipcode":"13158","place":"Berlin","state":"Berlin","state_code":"BE","district":"Rosenthal","community":"Pankow-Prenzlauer Berg-Weißensee","square meters": "","latitude":"52.5932","longitude":"13.3835"},
    {"zipcode":"13159","place":"Berlin","state":"Berlin","state_code":"BE","district":"Blankenfelde","community":"Pankow-Prenzlauer Berg-Weißensee","square meters": "","latitude":"52.623","longitude":"13.3978"},
    {"zipcode":"13187","place":"Berlin","state":"Berlin","state_code":"BE","district":"Pankow","community":"Pankow-Prenzlauer Berg-Weißensee","square meters": "","latitude":"52.5695","longitude":"13.4084"},
    {"zipcode":"13189","place":"Berlin","state":"Berlin","state_code":"BE","district":"Pankow","community":"Pankow-Prenzlauer Berg-Weißensee","square meters": "","latitude":"52.5643","longitude":"13.4219"},
    {"zipcode":"13347","place":"Berlin","state":"Berlin","state_code":"BE","district":"Wedding","community":"Mitte-Wedding-Tiergarten","square meters": "","latitude":"52.5491","longitude":"13.3655"},
    {"zipcode":"13349","place":"Berlin","state":"Berlin","state_code":"BE","district":"Wedding","community":"Mitte-Wedding-Tiergarten","square meters": "","latitude":"52.558","longitude":"13.3473"},
    {"zipcode":"13351","place":"Berlin","state":"Berlin","state_code":"BE","district":"Wedding","community":"Mitte-Wedding-Tiergarten","square meters": "","latitude":"52.5507","longitude":"13.3328"},
    {"zipcode":"13353","place":"Berlin","state":"Berlin","state_code":"BE","district":"Wedding","community":"Mitte-Wedding-Tiergarten","square meters": "","latitude":"52.5416","longitude":"13.3495"},
    {"zipcode":"13355","place":"Berlin","state":"Berlin","state_code":"BE","district":"Wedding","community":"Mitte-Wedding-Tiergarten","square meters": "","latitude":"52.5416","longitude":"13.3904"},
    {"zipcode":"13357","place":"Berlin","state":"Berlin","state_code":"BE","district":"Gesundbrunnen","community":"Mitte-Wedding-Tiergarten","square meters": "","latitude":"52.5502","longitude":"13.3828"},
    {"zipcode":"13359","place":"Berlin","state":"Berlin","state_code":"BE","district":"Gesundbrunnen","community":"Mitte-Wedding-Tiergarten","square meters": "","latitude":"52.5599","longitude":"13.3851"},
    {"zipcode":"13403","place":"Berlin","state":"Berlin","state_code":"BE","district":"Reinickendorf","community":"Reinickendorf","square meters": "","latitude":"52.5739","longitude":"13.3224"},
    {"zipcode":"13405","place":"Berlin","state":"Berlin","state_code":"BE","district":"Reinickendorf","community":"Reinickendorf","square meters": "","latitude":"52.5596","longitude":"13.2967"},
    {"zipcode":"13407","place":"Berlin","state":"Berlin","state_code":"BE","district":"Reinickendorf","community":"Reinickendorf","square meters": "","latitude":"52.5727","longitude":"13.3512"},
    {"zipcode":"13409","place":"Berlin","state":"Berlin","state_code":"BE","district":"Reinickendorf","community":"Reinickendorf","square meters": "","latitude":"52.5679","longitude":"13.3714"},
    {"zipcode":"13435","place":"Berlin","state":"Berlin","state_code":"BE","district":"Märkisches Viertel","community":"Reinickendorf","square meters": "","latitude":"52.602","longitude":"13.3456"},
    {"zipcode":"13437","place":"Berlin","state":"Berlin","state_code":"BE","district":"Reinickendorf","community":"Reinickendorf","square meters": "","latitude":"52.5905","longitude":"13.3284"},
    {"zipcode":"13439","place":"Berlin","state":"Berlin","state_code":"BE","district":"Märkisches Viertel","community":"Reinickendorf","square meters": "","latitude":"52.5976","longitude":"13.3584"},
    {"zipcode":"13465","place":"Berlin","state":"Berlin","state_code":"BE","district":"Frohnau","community":"Reinickendorf","square meters": "","latitude":"52.6399","longitude":"13.2896"},
    {"zipcode":"13467","place":"Berlin","state":"Berlin","state_code":"BE","district":"Hermsdorf","community":"Reinickendorf","square meters": "","latitude":"52.6171","longitude":"13.3075"},
    {"zipcode":"13469","place":"Berlin","state":"Berlin","state_code":"BE","district":"Lübars","community":"Reinickendorf","square meters": "","latitude":"52.6119","longitude":"13.3422"},
    {"zipcode":"13503","place":"Berlin","state":"Berlin","state_code":"BE","district":"Tegel","community":"Reinickendorf","square meters": "","latitude":"52.6122","longitude":"13.2488"},
    {"zipcode":"13505","place":"Berlin","state":"Berlin","state_code":"BE","district":"Tegel","community":"Reinickendorf","square meters": "","latitude":"52.5839","longitude":"13.2404"},
    {"zipcode":"13507","place":"Berlin","state":"Berlin","state_code":"BE","district":"Tegel","community":"Reinickendorf","square meters": "","latitude":"52.5765","longitude":"13.2717"},
    {"zipcode":"13509","place":"Berlin","state":"Berlin","state_code":"BE","district":"Tegel","community":"Reinickendorf","square meters": "","latitude":"52.5892","longitude":"13.3006"},
    {"zipcode":"13581","place":"Berlin","state":"Berlin","state_code":"BE","district":"Spandau","community":"Spandau","square meters": "","latitude":"52.531","longitude":"13.1794"},
    {"zipcode":"13583","place":"Berlin","state":"Berlin","state_code":"BE","district":"Spandau","community":"Spandau","square meters": "","latitude":"52.5437","longitude":"13.1824"},
    {"zipcode":"13585","place":"Berlin","state":"Berlin","state_code":"BE","district":"Spandau","community":"Spandau","square meters": "","latitude":"52.5477","longitude":"13.2049"},
    {"zipcode":"13587","place":"Berlin","state":"Berlin","state_code":"BE","district":"Hakenfelde","community":"Spandau","square meters": "","latitude":"52.5767","longitude":"13.1854"},
    {"zipcode":"13589","place":"Berlin","state":"Berlin","state_code":"BE","district":"Falkenhagener Feld","community":"Spandau","square meters": "","latitude":"52.557","longitude":"13.1676"},
    {"zipcode":"13591","place":"Berlin","state":"Berlin","state_code":"BE","district":"Staaken","community":"Spandau","square meters": "","latitude":"52.5345","longitude":"13.1405"},
    {"zipcode":"13593","place":"Berlin","state":"Berlin","state_code":"BE","district":"Wilhelmstadt","community":"Spandau","square meters": "","latitude":"52.5148","longitude":"13.1672"},
    {
        "zipcode":"13595",
        "place":"Berlin",
        "state":"Berlin",
        "state_code":"BE", 
        "district":"Wilhelmstadt",
        "community":"Spandau",
        "square meters": "",
        "latitude":"52.5116",
        "longitude":"13.1962"
    },
    {"zipcode":"13597","place":"Berlin","state":"Berlin","state_code":"BE","district":"Spandau","community":"Spandau","square meters": "","latitude":"52.5272","longitude":"13.2195"},
    {"zipcode":"13599","place":"Berlin","state":"Berlin","state_code":"BE","district":"Haselhorst","community":"Spandau","square meters": "","latitude":"52.5463","longitude":"13.235"},
    {"zipcode":"13627","place":"Berlin","state":"Berlin","state_code":"BE","district":"Charlottenburg","community":"Charlottenburg-Wilmersdorf","square meters": "","latitude":"52.5398","longitude":"13.2991"},
    {"zipcode":"13629","place":"Berlin","state":"Berlin","state_code":"BE","district":"Siemensstadt","community":"Spandau","square meters": "","latitude":"52.5422","longitude":"13.2661"},
    {"zipcode":"14050","place":"Berlin","state":"Berlin","state_code":"BE","district":"Charlottenburg","community":"Charlottenburg-Wilmersdorf","square meters": "","latitude":"52.5208","longitude":"13.2683"},
    {"zipcode":"14052","place":"Berlin","state":"Berlin","state_code":"BE","district":"Charlottenburg","community":"Charlottenburg-Wilmersdorf","square meters": "","latitude":"52.5156","longitude":"13.2569"},
    {"zipcode":"14053","place":"Berlin","state":"Berlin","state_code":"BE","district":"Charlottenburg","community":"Charlottenburg-Wilmersdorf","square meters": "","latitude":"52.5159","longitude":"13.2387"},
    {"zipcode":"14055","place":"Berlin","state":"Berlin","state_code":"BE","district":"Charlottenburg / Wilmersdorf","community":"Charlottenburg-Wilmersdorf","square meters": "","latitude":"52.502","longitude":"13.2447"},
    {"zipcode":"14057","place":"Berlin","state":"Berlin","state_code":"BE","district":"Charlottenburg","community":"Charlottenburg-Wilmersdorf","square meters": "","latitude":"52.5073","longitude":"13.2879"},
    {"zipcode":"14059","place":"Berlin","state":"Berlin","state_code":"BE","district":"Charlottenburg","community":"Charlottenburg-Wilmersdorf","square meters": "","latitude":"52.5205","longitude":"13.2878"},
    {"zipcode":"14089","place":"Berlin","state":"Berlin","state_code":"BE","district":"Gatow / Kladow","community":"Spandau","square meters": "","latitude":"52.4708","longitude":"13.1516"},
    {"zipcode":"14109","place":"Berlin","state":"Berlin","state_code":"BE","district":"Wannsee","community":"Steglitz-Zehlendorf","square meters": "","latitude":"52.4197","longitude":"13.144"},
    {"zipcode":"14129","place":"Berlin","state":"Berlin","state_code":"BE","district":"Nikolassee","community":"Steglitz-Zehlendorf","square meters": "","latitude":"52.4463","longitude":"13.2026"},
    {"zipcode":"14131","place":"Berlin","state":"Berlin","state_code":"BE","district":"Bundeswehr","community":"Regierung","square meters": "","latitude":"52.517","longitude":"13.4"},
    {"zipcode":"14163","place":"Berlin","state":"Berlin","state_code":"BE","district":"Zehlendorf","community":"Steglitz-Zehlendorf","square meters": "","latitude":"52.4368","longitude":"13.2385"},
    {"zipcode":"14165","place":"Berlin","state":"Berlin","state_code":"BE","district":"Zehlendorf","community":"Steglitz-Zehlendorf","square meters": "","latitude":"52.4175","longitude":"13.2536"},
    {"zipcode":"14167","place":"Berlin","state":"Berlin","state_code":"BE","district":"Zehlendorf","community":"Steglitz-Zehlendorf","square meters": "","latitude":"52.4212","longitude":"13.2765"},
    {"zipcode":"14169","place":"Berlin","state":"Berlin","state_code":"BE","district":"Zehlendorf","community":"Steglitz-Zehlendorf","square meters": "","latitude":"52.4496","longitude":"13.2573"},
    {"zipcode":"14193","place":"Berlin","state":"Berlin","state_code":"BE","district":"Grunewald / Schmargendorf","community":"Charlottenburg-Wilmersdorf","square meters": "","latitude":"52.4831","longitude":"13.2365"},
    {"zipcode":"14195","place":"Berlin","state":"Berlin","state_code":"BE","district":"Dahlem","community":"Steglitz-Zehlendorf","square meters": "","latitude":"52.4589","longitude":"13.2829"},
    {"zipcode":"14197","place":"Berlin","state":"Berlin","state_code":"BE","district":"Wilmersdorf","community":"Charlottenburg-Wilmersdorf","square meters": "","latitude":"52.4734","longitude":"13.3118"},
    {"zipcode":"14199","place":"Berlin","state":"Berlin","state_code":"BE","district":"Schmargendorf / Wilmersdorf","community":"Charlottenburg-Wilmersdorf","square meters": "","latitude":"52.4777","longitude":"13.2951"},
    {"zipcode":"15537","place":"Gosen","state":"Brandenburg","state_code":"BE","district":"Erkner / Grünheide","community":"Oder-Spree","square meters": "","latitude":"52.4","longitude":"13.7167"}
]